HAWK-5A                 
1 52757U 22057AB  26170.43022038  .00016754  00000+0  28529-3 0  9991
2 52757  97.6614 329.4222 0005442  72.1777 288.0067 15.51460047226690
HAWK-6B                 
1 55324U 23011A   26170.87169296  .00003947  00000+0  17267-3 0  9998
2 55324  40.5002 336.4142 0001931  19.2816 340.8066 15.22954368188252
HAWK-6C                 
1 55326U 23011C   26170.87103586  .00003657  00000+0  16062-3 0  9990
2 55326  40.4987 333.2558 0002767   8.8045 351.2812 15.22950112188266
HAWK-6A                 
1 55327U 23011D   26170.87108723  .00003931  00000+0  17202-3 0  9991
2 55327  40.5001 334.8809 0002469   2.7787 357.3036 15.22952483188264
HAWK-7A                 
1 56191U 23054P   26170.73094107  .00004379  00000+0  16601-3 0  9992
2 56191  97.2695  58.0032 0004148  51.5002 308.6609 15.27382172177410
HAWK-7B                 
1 56193U 23054R   26170.73086045  .00004475  00000+0  16960-3 0  9991
2 56193  97.2720  56.2680 0003609  64.0470 296.1141 15.27380605177410
HAWK-7C                 
1 56200U 23054Y   26170.66523307  .00004399  00000+0  16678-3 0  9990
2 56200  97.2697  56.9720 0003540  55.5442 304.6131 15.27381278177402
