OBJECT_NAME,OBJECT_ID,EPOCH,MEAN_MOTION,ECCENTRICITY,INCLINATION,RA_OF_ASC_NODE,ARG_OF_PERICENTER,MEAN_ANOMALY,EPHEMERIS_TYPE,CLASSIFICATION_TYPE,NORAD_CAT_ID,ELEMENT_SET_NO,REV_AT_EPOCH,BSTAR,MEAN_MOTION_DOT,MEAN_MOTION_DDOT
HAWK-5A,2022-057AB,2026-06-19T10:19:31.040832,15.51460047,.00054423,97.6614,329.4222,72.1777,288.0067,0,U,52757,999,22669,.28529381E-3,.16754E-3,0
HAWK-6B,2023-011A,2026-06-19T20:55:14.271744,15.22954368,.00019319,40.5002,336.4142,19.2816,340.8066,0,U,55324,999,18825,.17267304E-3,.3947E-4,0
HAWK-6C,2023-011C,2026-06-19T20:54:17.498304,15.22950112,.00027671,40.4987,333.2558,8.8045,351.2812,0,U,55326,999,18826,.16062218E-3,.3657E-4,0
HAWK-6A,2023-011D,2026-06-19T20:54:21.936672,15.22952483,.00024698,40.5001,334.8809,2.7787,357.3036,0,U,55327,999,18826,.17201793E-3,.3931E-4,0
HAWK-7A,2023-054P,2026-06-19T17:32:33.308448,15.27382172,.00041481,97.2695,58.0032,51.5002,308.6609,0,U,56191,999,17741,.16601125E-3,.4379E-4,0
HAWK-7B,2023-054R,2026-06-19T17:32:26.342880,15.27380605,.00036099,97.2720,56.2680,64.0470,296.1141,0,U,56193,999,17741,.16960071E-3,.4475E-4,0
HAWK-7C,2023-054Y,2026-06-19T15:57:56.137248,15.27381278,.00035401,97.2697,56.9720,55.5442,304.6131,0,U,56200,999,17740,.16677597E-3,.4399E-4,0
